TEVEL2-2                
1 63219U 25052K   26088.19423245  .00026841  00000+0  89292-3 0  9992
2 63219  97.3973 344.2517 0004604  66.5772 293.5953 15.31122867 57840
TEVEL2-9                
1 63237U 25052AD  26088.20481147  .00024556  00000+0  86246-3 0  9996
2 63237  97.4038 343.7967 0008351  71.7321 288.4827 15.29355209 57799
TEVEL2-7                
1 63238U 25052AE  26088.16653793  .00024244  00000+0  85765-3 0  9999
2 63238  97.4040 343.7050 0008481  71.9906 288.2257 15.29121412 57782
TEVEL2-8                
1 63239U 25052AF  26088.17383397  .00024670  00000+0  87317-3 0  9999
2 63239  97.4040 343.6920 0008422  72.5289 287.6871 15.29100439 57785
HADES-ICM               
1 63492U 25052BN  26088.19903403  .00267965  00000+0  28333-2 0  9996
2 63492  97.3910 349.4409 0007858  78.5588 281.6552 15.63278578 58180
INNOSAT 16 (RS92S7)     
1 64878U 25155C   26088.14745995  .00008562  00000+0  35061-3 0  9997
2 64878  97.4488  55.6227 0012636 105.0245 255.2392 15.24475570 68470
GEOSCAN 6 (RS92S6)      
1 64879U 25155D   26088.16191421  .00016723  00000+0  60454-3 0  9991
2 64879  97.4485  56.5354 0010251  98.5708 261.6693 15.28473445 68535
GEOSCAN 1 (RS92S1)      
1 64880U 25155E   26088.19208604  .00018532  00000+0  66018-3 0  9990
2 64880  97.4483  56.6520 0010175  98.6410 261.5982 15.28932980 68542
239ALFEROV (RS61S)      
1 64881U 25155F   26088.19745810  .00024088  00000+0  81396-3 0  9995
2 64881  97.4487  56.9795 0009908  98.2853 261.9511 15.30602425 68568
GEOSCAN 2 (RS92S2)      
1 64890U 25155Q   26088.20061170  .00018483  00000+0  65256-3 0  9996
2 64890  97.4482  56.7798 0009528  88.3210 271.9121 15.29232953 68559
GEOSCAN 5 (RS92S5)      
1 64891U 25155R   26088.20338350  .00023884  00000+0  79913-3 0  9990
2 64891  97.4480  57.0917 0008697 102.7934 257.4279 15.30934699 68578
GEOSCAN 4 (RS92S4)      
1 64892U 25155S   26088.19441163  .00024608  00000+0  82038-3 0  9993
2 64892  97.4483  57.1113 0008742 103.1157 257.1060 15.31045831 68571
GEOSCAN 3 (RS92S3)      
1 64893U 25155T   26088.15464859  .00029212  00000+0  92967-3 0  9995
2 64893  97.4474  57.3014 0008574 103.9982 256.2214 15.32506913 68587
INNOSAT 3 (RS92S0)      
1 64894U 25155U   26088.18516802  .00052818  00000+0  13975-2 0  9994
2 64894  97.4440  58.1325 0008509 102.6603 257.5593 15.38180007 68648
KNACKSAT-2              
1 67683U 98067XZ  26087.90823796  .00045826  00000+0  71242-3 0  9990
2 67683  51.6324 336.2444 0010006 255.4599 104.5282 15.53414385  7777
