[{"OBJECT_NAME":"TEVEL2-2","OBJECT_ID":"2025-052K","EPOCH":"2026-03-29T04:39:41.683680","MEAN_MOTION":15.31122867,"ECCENTRICITY":0.0004604,"INCLINATION":97.3973,"RA_OF_ASC_NODE":344.2517,"ARG_OF_PERICENTER":66.5772,"MEAN_ANOMALY":293.5953,"EPHEMERIS_TYPE":0,"CLASSIFICATION_TYPE":"U","NORAD_CAT_ID":63219,"ELEMENT_SET_NO":999,"REV_AT_EPOCH":5784,"BSTAR":0.00089292,"MEAN_MOTION_DOT":0.00026841,"MEAN_MOTION_DDOT":0},{"OBJECT_NAME":"TEVEL2-9","OBJECT_ID":"2025-052AD","EPOCH":"2026-03-29T04:54:55.711008","MEAN_MOTION":15.29355209,"ECCENTRICITY":0.0008351,"INCLINATION":97.4038,"RA_OF_ASC_NODE":343.7967,"ARG_OF_PERICENTER":71.7321,"MEAN_ANOMALY":288.4827,"EPHEMERIS_TYPE":0,"CLASSIFICATION_TYPE":"U","NORAD_CAT_ID":63237,"ELEMENT_SET_NO":999,"REV_AT_EPOCH":5779,"BSTAR":0.00086246,"MEAN_MOTION_DOT":0.00024556,"MEAN_MOTION_DDOT":0},{"OBJECT_NAME":"TEVEL2-7","OBJECT_ID":"2025-052AE","EPOCH":"2026-03-29T03:59:48.877152","MEAN_MOTION":15.29121412,"ECCENTRICITY":0.0008481,"INCLINATION":97.404,"RA_OF_ASC_NODE":343.705,"ARG_OF_PERICENTER":71.9906,"MEAN_ANOMALY":288.2257,"EPHEMERIS_TYPE":0,"CLASSIFICATION_TYPE":"U","NORAD_CAT_ID":63238,"ELEMENT_SET_NO":999,"REV_AT_EPOCH":5778,"BSTAR":0.00085765,"MEAN_MOTION_DOT":0.00024244,"MEAN_MOTION_DDOT":0},{"OBJECT_NAME":"TEVEL2-8","OBJECT_ID":"2025-052AF","EPOCH":"2026-03-29T04:10:19.255008","MEAN_MOTION":15.29100439,"ECCENTRICITY":0.0008422,"INCLINATION":97.404,"RA_OF_ASC_NODE":343.692,"ARG_OF_PERICENTER":72.5289,"MEAN_ANOMALY":287.6871,"EPHEMERIS_TYPE":0,"CLASSIFICATION_TYPE":"U","NORAD_CAT_ID":63239,"ELEMENT_SET_NO":999,"REV_AT_EPOCH":5778,"BSTAR":0.00087317,"MEAN_MOTION_DOT":0.0002467,"MEAN_MOTION_DDOT":0},{"OBJECT_NAME":"HADES-ICM","OBJECT_ID":"2025-052BN","EPOCH":"2026-03-29T04:46:36.540192","MEAN_MOTION":15.63278578,"ECCENTRICITY":0.0007858,"INCLINATION":97.391,"RA_OF_ASC_NODE":349.4409,"ARG_OF_PERICENTER":78.5588,"MEAN_ANOMALY":281.6552,"EPHEMERIS_TYPE":0,"CLASSIFICATION_TYPE":"U","NORAD_CAT_ID":63492,"ELEMENT_SET_NO":999,"REV_AT_EPOCH":5818,"BSTAR":0.0028333,"MEAN_MOTION_DOT":0.00267965,"MEAN_MOTION_DDOT":0},{"OBJECT_NAME":"INNOSAT 16 (RS92S7)","OBJECT_ID":"2025-155C","EPOCH":"2026-03-29T03:32:20.539680","MEAN_MOTION":15.2447557,"ECCENTRICITY":0.0012636,"INCLINATION":97.4488,"RA_OF_ASC_NODE":55.6227,"ARG_OF_PERICENTER":105.0245,"MEAN_ANOMALY":255.2392,"EPHEMERIS_TYPE":0,"CLASSIFICATION_TYPE":"U","NORAD_CAT_ID":64878,"ELEMENT_SET_NO":999,"REV_AT_EPOCH":6847,"BSTAR":0.00035061,"MEAN_MOTION_DOT":8.562e-5,"MEAN_MOTION_DDOT":0},{"OBJECT_NAME":"GEOSCAN 6 (RS92S6)","OBJECT_ID":"2025-155D","EPOCH":"2026-03-29T03:53:09.387744","MEAN_MOTION":15.28473445,"ECCENTRICITY":0.0010251,"INCLINATION":97.4485,"RA_OF_ASC_NODE":56.5354,"ARG_OF_PERICENTER":98.5708,"MEAN_ANOMALY":261.6693,"EPHEMERIS_TYPE":0,"CLASSIFICATION_TYPE":"U","NORAD_CAT_ID":64879,"ELEMENT_SET_NO":999,"REV_AT_EPOCH":6853,"BSTAR":0.00060454,"MEAN_MOTION_DOT":0.00016723,"MEAN_MOTION_DDOT":0},{"OBJECT_NAME":"GEOSCAN 1 (RS92S1)","OBJECT_ID":"2025-155E","EPOCH":"2026-03-29T04:36:36.233856","MEAN_MOTION":15.2893298,"ECCENTRICITY":0.0010175,"INCLINATION":97.4483,"RA_OF_ASC_NODE":56.652,"ARG_OF_PERICENTER":98.641,"MEAN_ANOMALY":261.5982,"EPHEMERIS_TYPE":0,"CLASSIFICATION_TYPE":"U","NORAD_CAT_ID":64880,"ELEMENT_SET_NO":999,"REV_AT_EPOCH":6854,"BSTAR":0.00066018,"MEAN_MOTION_DOT":0.00018532,"MEAN_MOTION_DDOT":0},{"OBJECT_NAME":"239ALFEROV (RS61S)","OBJECT_ID":"2025-155F","EPOCH":"2026-03-29T04:44:20.379840","MEAN_MOTION":15.30602425,"ECCENTRICITY":0.0009908,"INCLINATION":97.4487,"RA_OF_ASC_NODE":56.9795,"ARG_OF_PERICENTER":98.2853,"MEAN_ANOMALY":261.9511,"EPHEMERIS_TYPE":0,"CLASSIFICATION_TYPE":"U","NORAD_CAT_ID":64881,"ELEMENT_SET_NO":999,"REV_AT_EPOCH":6856,"BSTAR":0.00081396,"MEAN_MOTION_DOT":0.00024088,"MEAN_MOTION_DDOT":0},{"OBJECT_NAME":"GEOSCAN 2 (RS92S2)","OBJECT_ID":"2025-155Q","EPOCH":"2026-03-29T04:48:52.850880","MEAN_MOTION":15.29232953,"ECCENTRICITY":0.0009528,"INCLINATION":97.4482,"RA_OF_ASC_NODE":56.7798,"ARG_OF_PERICENTER":88.321,"MEAN_ANOMALY":271.9121,"EPHEMERIS_TYPE":0,"CLASSIFICATION_TYPE":"U","NORAD_CAT_ID":64890,"ELEMENT_SET_NO":999,"REV_AT_EPOCH":6855,"BSTAR":0.00065256,"MEAN_MOTION_DOT":0.00018483,"MEAN_MOTION_DDOT":0},{"OBJECT_NAME":"GEOSCAN 5 (RS92S5)","OBJECT_ID":"2025-155R","EPOCH":"2026-03-29T04:52:52.334400","MEAN_MOTION":15.30934699,"ECCENTRICITY":0.0008697,"INCLINATION":97.448,"RA_OF_ASC_NODE":57.0917,"ARG_OF_PERICENTER":102.7934,"MEAN_ANOMALY":257.4279,"EPHEMERIS_TYPE":0,"CLASSIFICATION_TYPE":"U","NORAD_CAT_ID":64891,"ELEMENT_SET_NO":999,"REV_AT_EPOCH":6857,"BSTAR":0.00079913,"MEAN_MOTION_DOT":0.00023884,"MEAN_MOTION_DDOT":0},{"OBJECT_NAME":"GEOSCAN 4 (RS92S4)","OBJECT_ID":"2025-155S","EPOCH":"2026-03-29T04:39:57.164832","MEAN_MOTION":15.31045831,"ECCENTRICITY":0.0008742,"INCLINATION":97.4483,"RA_OF_ASC_NODE":57.1113,"ARG_OF_PERICENTER":103.1157,"MEAN_ANOMALY":257.106,"EPHEMERIS_TYPE":0,"CLASSIFICATION_TYPE":"U","NORAD_CAT_ID":64892,"ELEMENT_SET_NO":999,"REV_AT_EPOCH":6857,"BSTAR":0.00082038,"MEAN_MOTION_DOT":0.00024608,"MEAN_MOTION_DDOT":0},{"OBJECT_NAME":"GEOSCAN 3 (RS92S3)","OBJECT_ID":"2025-155T","EPOCH":"2026-03-29T03:42:41.638176","MEAN_MOTION":15.32506913,"ECCENTRICITY":0.0008574,"INCLINATION":97.4474,"RA_OF_ASC_NODE":57.3014,"ARG_OF_PERICENTER":103.9982,"MEAN_ANOMALY":256.2214,"EPHEMERIS_TYPE":0,"CLASSIFICATION_TYPE":"U","NORAD_CAT_ID":64893,"ELEMENT_SET_NO":999,"REV_AT_EPOCH":6858,"BSTAR":0.00092967,"MEAN_MOTION_DOT":0.00029212,"MEAN_MOTION_DDOT":0},{"OBJECT_NAME":"INNOSAT 3 (RS92S0)","OBJECT_ID":"2025-155U","EPOCH":"2026-03-29T04:26:38.516928","MEAN_MOTION":15.38180007,"ECCENTRICITY":0.0008509,"INCLINATION":97.444,"RA_OF_ASC_NODE":58.1325,"ARG_OF_PERICENTER":102.6603,"MEAN_ANOMALY":257.5593,"EPHEMERIS_TYPE":0,"CLASSIFICATION_TYPE":"U","NORAD_CAT_ID":64894,"ELEMENT_SET_NO":999,"REV_AT_EPOCH":6864,"BSTAR":0.0013975,"MEAN_MOTION_DOT":0.00052818,"MEAN_MOTION_DDOT":0},{"OBJECT_NAME":"KNACKSAT-2","OBJECT_ID":"1998-067XZ","EPOCH":"2026-03-28T21:47:51.759744","MEAN_MOTION":15.53414385,"ECCENTRICITY":0.0010006,"INCLINATION":51.6324,"RA_OF_ASC_NODE":336.2444,"ARG_OF_PERICENTER":255.4599,"MEAN_ANOMALY":104.5282,"EPHEMERIS_TYPE":0,"CLASSIFICATION_TYPE":"U","NORAD_CAT_ID":67683,"ELEMENT_SET_NO":999,"REV_AT_EPOCH":777,"BSTAR":0.00071242,"MEAN_MOTION_DOT":0.00045826,"MEAN_MOTION_DDOT":0}]
